CALSPHERE 1             
1 00900U 64063C   25067.93253081  .00001054  00000+0  10772-2 0  9997
2 00900  90.2086  61.1304 0023112 260.5067 157.7419 13.75868567  7430
CALSPHERE 2             
1 00902U 64063E   25067.53694225  .00000075  00000+0  98904-4 0  9991
2 00902  90.2221  64.9079 0019912 134.8938 354.6208 13.52850522793305
LCS 1                   
1 01361U 65034C   25067.76460051  .00000007  00000+0 -24955-3 0  9993
2 01361  32.1372 202.1033 0011439 272.9610  86.9578  9.89308137163794
TEMPSAT 1               
1 01512U 65065E   25067.89405574  .00000067  00000+0  11506-3 0  9991
2 01512  89.9712 213.1511 0071401 114.7901  38.7658 13.33556976898030
CALSPHERE 4A            
1 01520U 65065H   25067.54662293  .00000135  00000+0  24370-3 0  9994
2 01520  89.9283 126.4616 0068141 339.1448 129.4730 13.36172279900520
OPS 5712 (P/L 160)      
1 02826U 67053A   25067.82130924  .00011338  00000+0  19798-2 0  9999
2 02826  69.9200  90.7745 0005964 308.8392  51.2218 14.68102666997683
OPS 5712 (P/L 153)      
1 02874U 67053H   25067.28899457  .00000100  00000+0  11006-3 0  9995
2 02874  69.9747  33.8368 0004439  77.3064 282.8538 13.96720029942205
SURCAL 150B             
1 02909U 67053J   25068.21878956  .00105433  00000+0  66793-2 0  9996
2 02909  69.9299   5.8003 0005142 274.0108  86.0468 15.08351651 11083
RIGIDSPHERE 2 (LCS 4)   
1 05398U 71067E   25067.83402197  .00001188  00000+0  38784-3 0  9990
2 05398  87.6161 108.0438 0059486 338.2750  21.5926 14.36938596807037
COSMOS 2493 (SKRL-756 1)
1 39490U 13078A   25068.17289645  .00006632  00000+0  55479-3 0  9996
2 39490  82.4177 354.8091 0015091  20.5462 339.6365 14.98249222608564
COSMOS 2494 (SKRL-756 2)
1 39491U 13078B   25068.13752490  .00007060  00000+0  55678-3 0  9993
2 39491  82.4176 346.0150 0017640 346.6577  13.4178 15.00487836609046
